{
    "links": {
        "self": "http://www.neowsapp.com/rest/v1/neo/54016749?api_key=iIulBulltgU6a56xZRHN4H3l9WmuAYTsLGpBGhQ2"
    },
    "id": "54016749",
    "neo_reference_id": "54016749",
    "name": "(2020 HE6)",
    "designation": "2020 HE6",
    "nasa_jpl_url": "http://ssd.jpl.nasa.gov/sbdb.cgi?sstr=54016749",
    "absolute_magnitude_h": 25.573,
    "estimated_diameter": {
        "kilometers": {
            "estimated_diameter_min": 0.0204152629,
            "estimated_diameter_max": 0.0456499156
        },
        "meters": {
            "estimated_diameter_min": 20.4152628827,
            "estimated_diameter_max": 45.6499155843
        },
        "miles": {
            "estimated_diameter_min": 0.0126854523,
            "estimated_diameter_max": 0.0283655337
        },
        "feet": {
            "estimated_diameter_min": 66.9792110761,
            "estimated_diameter_max": 149.7700690455
        }
    },
    "is_potentially_hazardous_asteroid": false,
    "close_approach_data": [
        {
            "close_approach_date": "2020-04-21",
            "close_approach_date_full": "2020-Apr-21 07:04",
            "epoch_date_close_approach": 1587452640000,
            "relative_velocity": {
                "kilometers_per_second": "15.6892720301",
                "kilometers_per_hour": "56481.3793083254",
                "miles_per_hour": "35095.3326041092"
            },
            "miss_distance": {
                "astronomical": "0.0102384604",
                "lunar": "3.9827610956",
                "kilometers": "1531651.867919348",
                "miles": "951724.3386810824"
            },
            "orbiting_body": "Earth"
        },
        {
            "close_approach_date": "2021-10-15",
            "close_approach_date_full": "2021-Oct-15 20:27",
            "epoch_date_close_approach": 1634329620000,
            "relative_velocity": {
                "kilometers_per_second": "3.9504207324",
                "kilometers_per_hour": "14221.514636789",
                "miles_per_hour": "8836.6961363981"
            },
            "miss_distance": {
                "astronomical": "1.5965573115",
                "lunar": "621.0607941735",
                "kilometers": "238841573.133326505",
                "miles": "148409271.715675569"
            },
            "orbiting_body": "Juptr"
        }
    ],
    "orbital_data": {
        "orbit_id": "4",
        "orbit_determination_date": "2020-04-29 06:54:11",
        "first_observation_date": "2020-04-24",
        "last_observation_date": "2020-04-28",
        "data_arc_in_days": 4,
        "observations_used": 39,
        "orbit_uncertainty": "8",
        "minimum_orbit_intersection": ".00383247",
        "jupiter_tisserand_invariant": "3.442",
        "epoch_osculation": "2458966.5",
        "eccentricity": ".634625059539125",
        "semi_major_axis": "2.117755837642434",
        "inclination": "2.843543125769687",
        "ascending_node_longitude": "26.20951325018979",
        "orbital_period": "1125.673022882435",
        "perihelion_distance": ".7737749130892749",
        "perihelion_argument": "118.4596541119287",
        "aphelion_distance": "3.461736762195594",
        "perihelion_time": "2458917.697624715090",
        "mean_anomaly": "15.60742306640717",
        "mean_motion": ".3198086768377663",
        "equinox": "J2000",
        "orbit_class": {
            "orbit_class_type": "APO",
            "orbit_class_description": "Near-Earth asteroid orbits which cross the Earth’s orbit similar to that of 1862 Apollo",
            "orbit_class_range": "a (semi-major axis) > 1.0 AU; q (perihelion) < 1.017 AU"
        }
    },
    "is_sentry_object": false
}